GOES 18                 
1 51850U 22021A   26032.78308484  .00000087  00000+0  00000+0 0  9994
2 51850   0.0053 163.5347 0000687 195.2213 278.1114  1.00270999  5233
GOES 19                 
1 60133U 24119A   26032.90368987 -.00000258  00000+0  00000+0 0  9997
2 60133   0.0030  32.7647 0001127 310.4683  38.9874  1.00271513  5603
